{"type": "FeatureCollection", "features": [{"type": "Feature", "properties": {"norad_id": 22490, "name": "SCD 1", "group": "resource", "lat": -21.167080745426635, "lon": 123.1339114820386, "alt_km": 762.1845647227501, "timestamp": "2025-12-17T21:39:45.365077+00:00", "meta": {"OBJECT_NAME": "SCD 1", "OBJECT_ID": "1993-009B", "EPOCH": "2025-12-17T09:42:49.057344", "MEAN_MOTION": 14.46002371, "ECCENTRICITY": 0.00419998, "INCLINATION": 24.9688, "RA_OF_ASC_NODE": 249.8901, "ARG_OF_PERICENTER": 14.4582, "MEAN_ANOMALY": 147.67, "EPHEMERIS_TYPE": 0, "CLASSIFICATION_TYPE": "U", "NORAD_CAT_ID": 22490, "ELEMENT_SET_NO": 999, "REV_AT_EPOCH": 73477, "BSTAR": 7.8463198e-05, "MEAN_MOTION_DOT": 4.72e-06, "MEAN_MOTION_DDOT": 0}, "tle": {"line1": "1 22490U 93009B   25351.40473446  .00000472  00000+0  78463-4 0  9990", "line2": "2 22490  24.9688 249.8901 0041999  14.4582 147.6700 14.46002371734776"}}, "geometry": {"type": "Point", "coordinates": [123.1339114820386, -21.167080745426635]}}, {"type": "Feature", "properties": {"norad_id": 25397, "name": "TECHSAT 1B (GO-32)", "group": "resource", "lat": -11.790246836383732, "lon": -22.871956163871154, "alt_km": 814.2113287056736, "timestamp": "2025-12-17T21:39:45.365114+00:00", "meta": {"OBJECT_NAME": "TECHSAT 1B (GO-32)", "OBJECT_ID": "1998-043D", "EPOCH": "2025-12-17T13:17:20.568192", "MEAN_MOTION": 14.24378479, "ECCENTRICITY": 0.00019235, "INCLINATION": 98.9923, "RA_OF_ASC_NODE": 334.877, "ARG_OF_PERICENTER": 49.549, "MEAN_ANOMALY": 310.5855, "EPHEMERIS_TYPE": 0, "CLASSIFICATION_TYPE": "U", "NORAD_CAT_ID": 25397, "ELEMENT_SET_NO": 999, "REV_AT_EPOCH": 42547, "BSTAR": 5.2315154e-05, "MEAN_MOTION_DOT": 7.4e-07, "MEAN_MOTION_DDOT": 0}, "tle": {"line1": "1 25397U 98043D   25351.55371028  .00000074  00000+0  52315-4 0  9997", "line2": "2 25397  98.9923 334.8770 0001923  49.5490 310.5855 14.24378479425474"}}, "geometry": {"type": "Point", "coordinates": [-22.871956163871154, -11.790246836383732]}}, {"type": "Feature", "properties": {"norad_id": 25504, "name": "SCD 2", "group": "resource", "lat": -24.59400996680034, "lon": 9.314202156252174, "alt_km": 744.9338542864689, "timestamp": "2025-12-17T21:39:45.365127+00:00", "meta": {"OBJECT_NAME": "SCD 2", "OBJECT_ID": "1998-060A", "EPOCH": "2025-12-17T15:35:50.466624", "MEAN_MOTION": 14.45426055, "ECCENTRICITY": 0.00168517, "INCLINATION": 24.9942, "RA_OF_ASC_NODE": 111.6188, "ARG_OF_PERICENTER": 5.6852, "MEAN_ANOMALY": 17.0271, "EPHEMERIS_TYPE": 0, "CLASSIFICATION_TYPE": "U", "NORAD_CAT_ID": 25504, "ELEMENT_SET_NO": 999, "REV_AT_EPOCH": 43403, "BSTAR": 5.8702746e-05, "MEAN_MOTION_DOT": 3.92e-06, "MEAN_MOTION_DDOT": 0}, "tle": {"line1": "1 25504U 98060A   25351.64988966  .00000392  00000+0  58703-4 0  9991", "line2": "2 25504  24.9942 111.6188 0016851   5.6852  17.0271 14.45426055434039"}}, "geometry": {"type": "Point", "coordinates": [9.314202156252174, -24.59400996680034]}}, {"type": "Feature", "properties": {"norad_id": 25757, "name": "DLR-TUBSAT", "group": "resource", "lat": 5.517826358639527, "lon": -24.267465816720218, "alt_km": 730.1217005310627, "timestamp": "2025-12-17T21:39:45.365138+00:00", "meta": {"OBJECT_NAME": "DLR-TUBSAT", "OBJECT_ID": "1999-029B", "EPOCH": "2025-12-17T13:22:10.787520", "MEAN_MOTION": 14.52359578, "ECCENTRICITY": 0.00141996, "INCLINATION": 98.6566, "RA_OF_ASC_NODE": 336.2196, "ARG_OF_PERICENTER": 177.8976, "MEAN_ANOMALY": 182.2281, "EPHEMERIS_TYPE": 0, "CLASSIFICATION_TYPE": "U", "NORAD_CAT_ID": 25757, "ELEMENT_SET_NO": 999, "REV_AT_EPOCH": 40688, "BSTAR": 3.7650132e-05, "MEAN_MOTION_DOT": 1.05e-06, "MEAN_MOTION_DDOT": 0}, "tle": {"line1": "1 25757U 99029B   25351.55706930  .00000105  00000+0  37650-4 0  9996", "line2": "2 25757  98.6566 336.2196 0014199 177.8976 182.2281 14.52359578406886"}}, "geometry": {"type": "Point", "coordinates": [-24.267465816720218, 5.517826358639527]}}, {"type": "Feature", "properties": {"norad_id": 25994, "name": "TERRA", "group": "resource", "lat": -46.76273067286221, "lon": -145.17598615566615, "alt_km": 699.0648866449183, "timestamp": "2025-12-17T21:39:45.365149+00:00", "meta": {"OBJECT_NAME": "TERRA", "OBJECT_ID": "1999-068A", "EPOCH": "2025-12-17T14:47:06.904032", "MEAN_MOTION": 14.60907456, "ECCENTRICITY": 0.00035802, "INCLINATION": 97.9743, "RA_OF_ASC_NODE": 43.1215, "ARG_OF_PERICENTER": 85.0056, "MEAN_ANOMALY": 76.0683, "EPHEMERIS_TYPE": 0, "CLASSIFICATION_TYPE": "U", "NORAD_CAT_ID": 25994, "ELEMENT_SET_NO": 999, "REV_AT_EPOCH": 38309, "BSTAR": 9.3061721e-05, "MEAN_MOTION_DOT": 4.11e-06, "MEAN_MOTION_DDOT": 0}, "tle": {"line1": "1 25994U 99068A   25351.61605213  .00000411  00000+0  93062-4 0  9990", "line2": "2 25994  97.9743  43.1215 0003580  85.0056  76.0683 14.60907456383091"}}, "geometry": {"type": "Point", "coordinates": [-145.17598615566615, -46.76273067286221]}}, {"type": "Feature", "properties": {"norad_id": 27004, "name": "MAROC-TUBSAT", "group": "resource", "lat": -25.365737645247087, "lon": 165.13353110818846, "alt_km": 1003.5909110556713, "timestamp": "2025-12-17T21:39:45.365160+00:00", "meta": {"OBJECT_NAME": "MAROC-TUBSAT", "OBJECT_ID": "2001-056D", "EPOCH": "2025-12-17T11:34:53.154624", "MEAN_MOTION": 13.70253185, "ECCENTRICITY": 0.00191365, "INCLINATION": 99.7912, "RA_OF_ASC_NODE": 160.0105, "ARG_OF_PERICENTER": 247.4964, "MEAN_ANOMALY": 175.6362, "EPHEMERIS_TYPE": 0, "CLASSIFICATION_TYPE": "U", "NORAD_CAT_ID": 27004, "ELEMENT_SET_NO": 999, "REV_AT_EPOCH": 20130, "BSTAR": 3.0798804e-05, "MEAN_MOTION_DOT": -2e-07, "MEAN_MOTION_DDOT": 0}, "tle": {"line1": "1 27004U 01056D   25351.48255966 -.00000020  00000+0  30799-4 0  9990", "line2": "2 27004  99.7912 160.0105 0019136 247.4964 175.6362 13.70253185201302"}}, "geometry": {"type": "Point", "coordinates": [165.13353110818846, -25.365737645247087]}}, {"type": "Feature", "properties": {"norad_id": 27424, "name": "AQUA", "group": "resource", "lat": 59.45718144576124, "lon": 147.37596113732928, "alt_km": 680.6359644758404, "timestamp": "2025-12-17T21:39:45.365171+00:00", "meta": {"OBJECT_NAME": "AQUA", "OBJECT_ID": "2002-022A", "EPOCH": "2025-12-17T15:20:20.387904", "MEAN_MOTION": 14.6182048, "ECCENTRICITY": 0.00012743, "INCLINATION": 98.4042, "RA_OF_ASC_NODE": 312.5979, "ARG_OF_PERICENTER": 113.5364, "MEAN_ANOMALY": 60.1013, "EPHEMERIS_TYPE": 0, "CLASSIFICATION_TYPE": "U", "NORAD_CAT_ID": 27424, "ELEMENT_SET_NO": 999, "REV_AT_EPOCH": 25674, "BSTAR": 0.00018278223, "MEAN_MOTION_DOT": 8.64e-06, "MEAN_MOTION_DDOT": 0}, "tle": {"line1": "1 27424U 02022A   25351.63912486  .00000864  00000+0  18278-3 0  9996", "line2": "2 27424  98.4042 312.5979 0001274 113.5364  60.1013 14.61820480256740"}}, "geometry": {"type": "Point", "coordinates": [147.37596113732928, 59.45718144576124]}}, {"type": "Feature", "properties": {"norad_id": 28051, "name": "IRS-P6 (RESOURCESAT-1)", "group": "resource", "lat": -46.13014021561366, "lon": -156.5754196814545, "alt_km": 755.9907636236876, "timestamp": "2025-12-17T21:39:45.365181+00:00", "meta": {"OBJECT_NAME": "IRS-P6 (RESOURCESAT-1)", "OBJECT_ID": "2003-046A", "EPOCH": "2025-12-17T16:06:57.905856", "MEAN_MOTION": 14.36077084, "ECCENTRICITY": 0.00644031, "INCLINATION": 98.2179, "RA_OF_ASC_NODE": 31.8503, "ARG_OF_PERICENTER": 165.9198, "MEAN_ANOMALY": 306.008, "EPHEMERIS_TYPE": 0, "CLASSIFICATION_TYPE": "U", "NORAD_CAT_ID": 28051, "ELEMENT_SET_NO": 999, "REV_AT_EPOCH": 15447, "BSTAR": 5.6783877e-05, "MEAN_MOTION_DOT": 1.28e-06, "MEAN_MOTION_DDOT": 0}, "tle": {"line1": "1 28051U 03046A   25351.67150354  .00000128  00000+0  56784-4 0  9990", "line2": "2 28051  98.2179  31.8503 0064403 165.9198 306.0080 14.36077084154478"}}, "geometry": {"type": "Point", "coordinates": [-156.5754196814545, -46.13014021561366]}}, {"type": "Feature", "properties": {"norad_id": 28220, "name": "SHIYAN-1 (SY-1)", "group": "resource", "lat": 9.43067113660763, "lon": 52.42569516567759, "alt_km": 481.1635704185419, "timestamp": "2025-12-17T21:39:45.365191+00:00", "meta": {"OBJECT_NAME": "SHIYAN-1 (SY-1)", "OBJECT_ID": "2004-012A", "EPOCH": "2025-12-17T15:20:07.765728", "MEAN_MOTION": 15.28271597, "ECCENTRICITY": 0.00053297, "INCLINATION": 97.8937, "RA_OF_ASC_NODE": 53.467, "ARG_OF_PERICENTER": 306.0328, "MEAN_ANOMALY": 54.0416, "EPHEMERIS_TYPE": 0, "CLASSIFICATION_TYPE": "U", "NORAD_CAT_ID": 28220, "ELEMENT_SET_NO": 999, "REV_AT_EPOCH": 18331, "BSTAR": 0.00039273963, "MEAN_MOTION_DOT": 0.00010744, "MEAN_MOTION_DDOT": 0}, "tle": {"line1": "1 28220U 04012A   25351.63897877  .00010744  00000+0  39274-3 0  9995", "line2": "2 28220  97.8937  53.4670 0005329 306.0328  54.0416 15.28271597183318"}}, "geometry": {"type": "Point", "coordinates": [52.42569516567759, 9.43067113660763]}}, {"type": "Feature", "properties": {"norad_id": 28376, "name": "AURA", "group": "resource", "lat": -53.900673271319164, "lon": 110.57773607341665, "alt_km": 697.8187896332602, "timestamp": "2025-12-17T21:39:45.365201+00:00", "meta": {"OBJECT_NAME": "AURA", "OBJECT_ID": "2004-026A", "EPOCH": "2025-12-17T14:01:00.669792", "MEAN_MOTION": 14.60957977, "ECCENTRICITY": 0.00013222, "INCLINATION": 98.319, "RA_OF_ASC_NODE": 301.8332, "ARG_OF_PERICENTER": 93.4235, "MEAN_ANOMALY": 266.7116, "EPHEMERIS_TYPE": 0, "CLASSIFICATION_TYPE": "U", "NORAD_CAT_ID": 28376, "ELEMENT_SET_NO": 999, "REV_AT_EPOCH": 13969, "BSTAR": 0.00018786832, "MEAN_MOTION_DOT": 8.73e-06, "MEAN_MOTION_DDOT": 0}, "tle": {"line1": "1 28376U 04026A   25351.58403553  .00000873  00000+0  18787-3 0  9998", "line2": "2 28376  98.3190 301.8332 0001322  93.4235 266.7116 14.60957977139694"}}, "geometry": {"type": "Point", "coordinates": [110.57773607341665, -53.900673271319164]}}]}